[{"OBJECT_NAME":"COSMOS 2251 DEB","OBJECT_ID":"1993-036AFF","EPOCH":"2026-03-05T15:59:20.520672","MEAN_MOTION":14.78258217,"ECCENTRICITY":0.0044446,"INCLINATION":74.0567,"RA_OF_ASC_NODE":143.7501,"ARG_OF_PERICENTER":173.7182,"MEAN_ANOMALY":337.7123,"EPHEMERIS_TYPE":0,"CLASSIFICATION_TYPE":"U","NORAD_CAT_ID":34976,"ELEMENT_SET_NO":999,"REV_AT_EPOCH":89498,"BSTAR":0.0010811,"MEAN_MOTION_DOT":7.955e-5,"MEAN_MOTION_DDOT":0},{"OBJECT_NAME":"COSMOS 2251 DEB","OBJECT_ID":"1993-036AFJ","EPOCH":"2026-03-05T13:04:49.738368","MEAN_MOTION":14.81055566,"ECCENTRICITY":0.0045819,"INCLINATION":74.0372,"RA_OF_ASC_NODE":104.1376,"ARG_OF_PERICENTER":166.6025,"MEAN_ANOMALY":193.6381,"EPHEMERIS_TYPE":0,"CLASSIFICATION_TYPE":"U","NORAD_CAT_ID":34979,"ELEMENT_SET_NO":999,"REV_AT_EPOCH":89445,"BSTAR":0.0011094,"MEAN_MOTION_DOT":8.739e-5,"MEAN_MOTION_DDOT":0},{"OBJECT_NAME":"COSMOS 2251 DEB","OBJECT_ID":"1993-036AFN","EPOCH":"2026-03-04T11:56:39.951168","MEAN_MOTION":14.42624039,"ECCENTRICITY":0.00144738,"INCLINATION":74.0432,"RA_OF_ASC_NODE":99.7472,"ARG_OF_PERICENTER":153.6316,"MEAN_ANOMALY":206.558,"EPHEMERIS_TYPE":0,"CLASSIFICATION_TYPE":"U","NORAD_CAT_ID":34990,"ELEMENT_SET_NO":999,"REV_AT_EPOCH":88525,"BSTAR":0.00044109541,"MEAN_MOTION_DOT":1.441e-5,"MEAN_MOTION_DDOT":0},{"OBJECT_NAME":"COSMOS 2251 DEB","OBJECT_ID":"1993-036AFV","EPOCH":"2026-02-28T01:05:53.162016","MEAN_MOTION":14.46526222,"ECCENTRICITY":0.00906238,"INCLINATION":73.8806,"RA_OF_ASC_NODE":165.5492,"ARG_OF_PERICENTER":125.6725,"MEAN_ANOMALY":235.2912,"EPHEMERIS_TYPE":0,"CLASSIFICATION_TYPE":"U","NORAD_CAT_ID":34997,"ELEMENT_SET_NO":999,"REV_AT_EPOCH":71864,"BSTAR":0.0013381338,"MEAN_MOTION_DOT":5.047e-5,"MEAN_MOTION_DDOT":0},{"OBJECT_NAME":"COSMOS 2251 DEB","OBJECT_ID":"1993-036AFW","EPOCH":"2026-03-05T07:08:12.825888","MEAN_MOTION":14.49700476,"ECCENTRICITY":0.0019718,"INCLINATION":74.0139,"RA_OF_ASC_NODE":4.8374,"ARG_OF_PERICENTER":136.2708,"MEAN_ANOMALY":18.2348,"EPHEMERIS_TYPE":0,"CLASSIFICATION_TYPE":"U","NORAD_CAT_ID":34998,"ELEMENT_SET_NO":999,"REV_AT_EPOCH":88616,"BSTAR":0.00077897,"MEAN_MOTION_DOT":2.979e-5,"MEAN_MOTION_DDOT":0},{"OBJECT_NAME":"COSMOS 2251 DEB","OBJECT_ID":"1993-036AFZ","EPOCH":"2026-03-05T16:52:09.683040","MEAN_MOTION":14.45654475,"ECCENTRICITY":0.0079269,"INCLINATION":74.0216,"RA_OF_ASC_NODE":316.8834,"ARG_OF_PERICENTER":76.4718,"MEAN_ANOMALY":284.5255,"EPHEMERIS_TYPE":0,"CLASSIFICATION_TYPE":"U","NORAD_CAT_ID":35012,"ELEMENT_SET_NO":999,"REV_AT_EPOCH":88760,"BSTAR":0.00018718,"MEAN_MOTION_DOT":6.6e-6,"MEAN_MOTION_DDOT":0},{"OBJECT_NAME":"COSMOS 2251 DEB","OBJECT_ID":"1993-036AGB","EPOCH":"2026-02-06T02:06:05.476896","MEAN_MOTION":14.76728606,"ECCENTRICITY":0.00065057,"INCLINATION":73.9978,"RA_OF_ASC_NODE":294.9695,"ARG_OF_PERICENTER":84.9691,"MEAN_ANOMALY":275.2226,"EPHEMERIS_TYPE":0,"CLASSIFICATION_TYPE":"U","NORAD_CAT_ID":35014,"ELEMENT_SET_NO":999,"REV_AT_EPOCH":72153,"BSTAR":0.0022239787,"MEAN_MOTION_DOT":0.00015587,"MEAN_MOTION_DDOT":0},{"OBJECT_NAME":"COSMOS 2251 DEB","OBJECT_ID":"1993-036AGC","EPOCH":"2026-03-02T10:06:07.080192","MEAN_MOTION":14.47405282,"ECCENTRICITY":0.00777457,"INCLINATION":73.9472,"RA_OF_ASC_NODE":84.9741,"ARG_OF_PERICENTER":294.1722,"MEAN_ANOMALY":130.8832,"EPHEMERIS_TYPE":0,"CLASSIFICATION_TYPE":"U","NORAD_CAT_ID":35015,"ELEMENT_SET_NO":999,"REV_AT_EPOCH":66593,"BSTAR":0.00095599129,"MEAN_MOTION_DOT":3.614e-5,"MEAN_MOTION_DDOT":0},{"OBJECT_NAME":"COSMOS 2251 DEB","OBJECT_ID":"1993-036AGD","EPOCH":"2026-03-04T04:33:06.636960","MEAN_MOTION":14.35264065,"ECCENTRICITY":0.01122391,"INCLINATION":73.9301,"RA_OF_ASC_NODE":144.1034,"ARG_OF_PERICENTER":42.1477,"MEAN_ANOMALY":346.3792,"EPHEMERIS_TYPE":0,"CLASSIFICATION_TYPE":"U","NORAD_CAT_ID":35016,"ELEMENT_SET_NO":999,"REV_AT_EPOCH":87951,"BSTAR":0.00036178064,"MEAN_MOTION_DOT":1.085e-5,"MEAN_MOTION_DDOT":0},{"OBJECT_NAME":"COSMOS 2251 DEB","OBJECT_ID":"1993-036AGF","EPOCH":"2026-03-05T11:57:52.447680","MEAN_MOTION":13.67405791,"ECCENTRICITY":0.0348648,"INCLINATION":73.9796,"RA_OF_ASC_NODE":333.6438,"ARG_OF_PERICENTER":226.102,"MEAN_ANOMALY":131.0824,"EPHEMERIS_TYPE":0,"CLASSIFICATION_TYPE":"U","NORAD_CAT_ID":35018,"ELEMENT_SET_NO":999,"REV_AT_EPOCH":84317,"BSTAR":0.00083568,"MEAN_MOTION_DOT":1.048e-5,"MEAN_MOTION_DDOT":0},{"OBJECT_NAME":"COSMOS 2251 DEB","OBJECT_ID":"1993-036AGH","EPOCH":"2026-03-04T08:00:19.448352","MEAN_MOTION":14.62947062,"ECCENTRICITY":0.00888876,"INCLINATION":74.0462,"RA_OF_ASC_NODE":42.6094,"ARG_OF_PERICENTER":137.0897,"MEAN_ANOMALY":223.7252,"EPHEMERIS_TYPE":0,"CLASSIFICATION_TYPE":"U","NORAD_CAT_ID":35020,"ELEMENT_SET_NO":999,"REV_AT_EPOCH":89431,"BSTAR":0.00019874084,"MEAN_MOTION_DOT":1.045e-5,"MEAN_MOTION_DDOT":0},{"OBJECT_NAME":"COSMOS 2251 DEB","OBJECT_ID":"1993-036AGK","EPOCH":"2026-02-21T16:15:51.407712","MEAN_MOTION":14.61180672,"ECCENTRICITY":0.00473587,"INCLINATION":74.0256,"RA_OF_ASC_NODE":186.2538,"ARG_OF_PERICENTER":4.6404,"MEAN_ANOMALY":355.519,"EPHEMERIS_TYPE":0,"CLASSIFICATION_TYPE":"U","NORAD_CAT_ID":35022,"ELEMENT_SET_NO":999,"REV_AT_EPOCH":60179,"BSTAR":0.00036098097,"MEAN_MOTION_DOT":1.775e-5,"MEAN_MOTION_DDOT":0},{"OBJECT_NAME":"COSMOS 2251 DEB","OBJECT_ID":"1993-036AGL","EPOCH":"2026-03-04T18:52:52.512960","MEAN_MOTION":14.98823795,"ECCENTRICITY":0.00269059,"INCLINATION":74.0362,"RA_OF_ASC_NODE":46.6284,"ARG_OF_PERICENTER":109.3103,"MEAN_ANOMALY":320.8832,"EPHEMERIS_TYPE":0,"CLASSIFICATION_TYPE":"U","NORAD_CAT_ID":35023,"ELEMENT_SET_NO":999,"REV_AT_EPOCH":89507,"BSTAR":0.002363482,"MEAN_MOTION_DOT":0.00028808,"MEAN_MOTION_DDOT":0},{"OBJECT_NAME":"COSMOS 2251 DEB","OBJECT_ID":"1993-036AGN","EPOCH":"2026-03-04T22:32:22.553088","MEAN_MOTION":14.73248347,"ECCENTRICITY":0.00831846,"INCLINATION":73.9348,"RA_OF_ASC_NODE":261.8102,"ARG_OF_PERICENTER":157.0582,"MEAN_ANOMALY":203.4342,"EPHEMERIS_TYPE":0,"CLASSIFICATION_TYPE":"U","NORAD_CAT_ID":35025,"ELEMENT_SET_NO":999,"REV_AT_EPOCH":89853,"BSTAR":0.0005414029,"MEAN_MOTION_DOT":3.662e-5,"MEAN_MOTION_DDOT":0},{"OBJECT_NAME":"COSMOS 2251 DEB","OBJECT_ID":"1993-036AGP","EPOCH":"2026-03-02T23:36:18.253440","MEAN_MOTION":14.53683845,"ECCENTRICITY":0.0084814,"INCLINATION":74.0478,"RA_OF_ASC_NODE":167.3147,"ARG_OF_PERICENTER":260.8058,"MEAN_ANOMALY":221.6675,"EPHEMERIS_TYPE":0,"CLASSIFICATION_TYPE":"U","NORAD_CAT_ID":35026,"ELEMENT_SET_NO":999,"REV_AT_EPOCH":89309,"BSTAR":8.6236e-5,"MEAN_MOTION_DOT":3.47e-6,"MEAN_MOTION_DDOT":0},{"OBJECT_NAME":"COSMOS 2251 DEB","OBJECT_ID":"1993-036AGR","EPOCH":"2026-03-05T02:47:56.919264","MEAN_MOTION":14.56657702,"ECCENTRICITY":0.00843571,"INCLINATION":74.0369,"RA_OF_ASC_NODE":114.6475,"ARG_OF_PERICENTER":228.7899,"MEAN_ANOMALY":161.3053,"EPHEMERIS_TYPE":0,"CLASSIFICATION_TYPE":"U","NORAD_CAT_ID":35028,"ELEMENT_SET_NO":999,"REV_AT_EPOCH":89485,"BSTAR":0.00010489854,"MEAN_MOTION_DOT":4.59e-6,"MEAN_MOTION_DDOT":0}]
