COSMOS 2251 DEB         
1 34976U 93036AFF 26064.66620973  .00007955  00000+0  10811-2 0  9995
2 34976  74.0567 143.7501 0044446 173.7182 337.7123 14.78258217894981
COSMOS 2251 DEB         
1 34979U 93036AFJ 26064.54502012  .00008739  00000+0  11094-2 0  9993
2 34979  74.0372 104.1376 0045819 166.6025 193.6381 14.81055566894454
COSMOS 2251 DEB         
1 34990U 93036AFN 26063.49768462  .00001441  00000+0  44110-3 0  9991
2 34990  74.0432  99.7472 0014473 153.6316 206.5580 14.42624039885258
COSMOS 2251 DEB         
1 34997U 93036AFV 26059.04575419  .00005047  00000+0  13381-2 0  9993
2 34997  73.8806 165.5492 0090623 125.6725 235.2912 14.46526222718640
COSMOS 2251 DEB         
1 34998U 93036AFW 26064.29737067  .00002979  00000+0  77897-3 0  9990
2 34998  74.0139   4.8374 0019718 136.2708  18.2348 14.49700476886165
COSMOS 2251 DEB         
1 35012U 93036AFZ 26064.70288985  .00000660  00000+0  18718-3 0  9996
2 35012  74.0216 316.8834 0079269  76.4718 284.5255 14.45654475887607
COSMOS 2251 DEB         
1 35014U 93036AGB 26037.08756339  .00015587  00000+0  22240-2 0  9990
2 35014  73.9978 294.9695 0006505  84.9691 275.2226 14.76728606721536
COSMOS 2251 DEB         
1 35015U 93036AGC 26061.42091528  .00003614  00000+0  95599-3 0  9994
2 35015  73.9472  84.9741 0077745 294.1722 130.8832 14.47405282665939
COSMOS 2251 DEB         
1 35016U 93036AGD 26063.18966015  .00001085  00000+0  36178-3 0  9990
2 35016  73.9301 144.1034 0112239  42.1477 346.3792 14.35264065879510
COSMOS 2251 DEB         
1 35018U 93036AGF 26064.49852370  .00001048  00000+0  83568-3 0  9999
2 35018  73.9796 333.6438 0348648 226.1020 131.0824 13.67405791843171
COSMOS 2251 DEB         
1 35020U 93036AGH 26063.33355843  .00001045  00000+0  19874-3 0  9993
2 35020  74.0462  42.6094 0088887 137.0897 223.7252 14.62947062894313
COSMOS 2251 DEB         
1 35022U 93036AGK 26052.67767833  .00001775  00000+0  36098-3 0  9993
2 35022  74.0256 186.2538 0047358   4.6404 355.5190 14.61180672601793
COSMOS 2251 DEB         
1 35023U 93036AGL 26063.78671890  .00028808  00000+0  23635-2 0  9993
2 35023  74.0362  46.6284 0026905 109.3103 320.8832 14.98823795895077
COSMOS 2251 DEB         
1 35025U 93036AGN 26063.93914992  .00003662  00000+0  54140-3 0  9992
2 35025  73.9348 261.8102 0083184 157.0582 203.4342 14.73248347898537
COSMOS 2251 DEB         
1 35026U 93036AGP 26061.98354460  .00000347  00000+0  86236-4 0  9993
2 35026  74.0478 167.3147 0084814 260.8058 221.6675 14.53683845893096
COSMOS 2251 DEB         
1 35028U 93036AGR 26064.11663101  .00000459  00000+0  10490-3 0  9990
2 35028  74.0369 114.6475 0084357 228.7899 161.3053 14.56657702894855
